[{"OBJECT_NAME":"LYRA-3","OBJECT_ID":"2025-135BB","EPOCH":"2026-03-09T20:51:33.773760","MEAN_MOTION":14.74138825,"ECCENTRICITY":0.00196485,"INCLINATION":97.7638,"RA_OF_ASC_NODE":177.9553,"ARG_OF_PERICENTER":304.2779,"MEAN_ANOMALY":55.657,"EPHEMERIS_TYPE":0,"CLASSIFICATION_TYPE":"U","NORAD_CAT_ID":64577,"ELEMENT_SET_NO":999,"REV_AT_EPOCH":3863,"BSTAR":0.00040041163,"MEAN_MOTION_DOT":2.6e-5,"MEAN_MOTION_DDOT":0},{"OBJECT_NAME":"FREGAT DEB","OBJECT_ID":"2011-037AZ","EPOCH":"2026-03-09T07:35:49.913952","MEAN_MOTION":11.47861311,"ECCENTRICITY":0.15875785,"INCLINATION":51.4396,"RA_OF_ASC_NODE":118.061,"ARG_OF_PERICENTER":83.1051,"MEAN_ANOMALY":294.7063,"EPHEMERIS_TYPE":0,"CLASSIFICATION_TYPE":"U","NORAD_CAT_ID":45815,"ELEMENT_SET_NO":999,"REV_AT_EPOCH":23819,"BSTAR":0.0013484807,"MEAN_MOTION_DOT":1.522e-5,"MEAN_MOTION_DDOT":0}]
